{
  "type": "FeatureCollection",
  "features": [
    {
      "type": "Feature",
      "properties": {
        "norad_id": 34350,
        "name": "IRIDIUM 33 DEB",
        "group": "iridium-33-debris",
        "lat": 61.80894196001263,
        "lon": 177.12245605954956,
        "alt_km": 720.404096625286,
        "timestamp": "2025-12-09T23:33:24.239122+00:00",
        "meta_object_name": "IRIDIUM 33 DEB",
        "meta_object_id": "1997-051ES",
        "meta_epoch": "2025-12-09T13:47:13.249824",
        "meta_mean_motion": 14.45376656,
        "meta_eccentricity": 0.00225308,
        "meta_inclination": 86.3277,
        "meta_ra_of_asc_node": 4.1808,
        "meta_arg_of_pericenter": 145.0472,
        "meta_mean_anomaly": 16.1955,
        "meta_ephemeris_type": 0,
        "meta_classification_type": "U",
        "meta_norad_cat_id": 34350,
        "meta_element_set_no": 999,
        "meta_rev_at_epoch": 88247,
        "meta_bstar": 0.00053159265,
        "meta_mean_motion_dot": 1.894e-05,
        "meta_mean_motion_ddot": 0,
        "tle_line1": "1 34350U 97051ES  25343.57445891  .00001894  00000+0  53159-3 0  9994",
        "tle_line2": "2 34350  86.3277   4.1808 0022530 145.0472  16.1955 14.45376656882479"
      },
      "geometry": {
        "type": "Point",
        "coordinates": [
          177.12245605954956,
          61.80894196001263
        ]
      }
    },
    {
      "type": "Feature",
      "properties": {
        "norad_id": 34366,
        "name": "IRIDIUM 33 DEB",
        "group": "iridium-33-debris",
        "lat": -0.10031371981628981,
        "lon": 50.50634459788477,
        "alt_km": 729.0545733891222,
        "timestamp": "2025-12-09T23:33:24.239133+00:00",
        "meta_object_name": "IRIDIUM 33 DEB",
        "meta_object_id": "1997-051FJ",
        "meta_epoch": "2025-12-09T15:59:46.412160",
        "meta_mean_motion": 14.54015219,
        "meta_eccentricity": 0.00222509,
        "meta_inclination": 86.3691,
        "meta_ra_of_asc_node": 50.6497,
        "meta_arg_of_pericenter": 149.3626,
        "meta_mean_anomaly": 2.8862,
        "meta_ephemeris_type": 0,
        "meta_classification_type": "U",
        "meta_norad_cat_id": 34366,
        "meta_element_set_no": 999,
        "meta_rev_at_epoch": 88137,
        "meta_bstar": 0.0017418362,
        "meta_mean_motion_dot": 7.389e-05,
        "meta_mean_motion_ddot": 0,
        "tle_line1": "1 34366U 97051FJ  25343.66650940  .00007389  00000+0  17418-2 0  9996",
        "tle_line2": "2 34366  86.3691  50.6497 0022250 149.3626   2.8862 14.54015219881375"
      },
      "geometry": {
        "type": "Point",
        "coordinates": [
          50.50634459788477,
          -0.10031371981628981
        ]
      }
    },
    {
      "type": "Feature",
      "properties": {
        "norad_id": 34375,
        "name": "IRIDIUM 33 DEB",
        "group": "iridium-33-debris",
        "lat": -84.97615791124949,
        "lon": 138.60198355852293,
        "alt_km": 894.6670065029357,
        "timestamp": "2025-12-09T23:33:24.239144+00:00",
        "meta_object_name": "IRIDIUM 33 DEB",
        "meta_object_id": "1997-051FT",
        "meta_epoch": "2025-12-09T12:12:31.902912",
        "meta_mean_motion": 14.17984003,
        "meta_eccentricity": 0.01030688,
        "meta_inclination": 86.4325,
        "meta_ra_of_asc_node": 183.9999,
        "meta_arg_of_pericenter": 136.8871,
        "meta_mean_anomaly": 243.7031,
        "meta_ephemeris_type": 0,
        "meta_classification_type": "U",
        "meta_norad_cat_id": 34375,
        "meta_element_set_no": 999,
        "meta_rev_at_epoch": 86666,
        "meta_bstar": 0.00067002905,
        "meta_mean_motion_dot": 1.464e-05,
        "meta_mean_motion_ddot": 0,
        "tle_line1": "1 34375U 97051FT  25343.50870258  .00001464  00000+0  67003-3 0  9999",
        "tle_line2": "2 34375  86.4325 183.9999 0103068 136.8871 243.7031 14.17984003866661"
      },
      "geometry": {
        "type": "Point",
        "coordinates": [
          138.60198355852293,
          -84.97615791124949
        ]
      }
    },
    {
      "type": "Feature",
      "properties": {
        "norad_id": 34376,
        "name": "IRIDIUM 33 DEB",
        "group": "iridium-33-debris",
        "lat": -23.59824669947078,
        "lon": -170.59984626285797,
        "alt_km": 673.9474447246666,
        "timestamp": "2025-12-09T23:33:24.239154+00:00",
        "meta_object_name": "IRIDIUM 33 DEB",
        "meta_object_id": "1997-051FU",
        "meta_epoch": "2025-12-09T01:16:56.150688",
        "meta_mean_motion": 14.62483707,
        "meta_eccentricity": 0.00267298,
        "meta_inclination": 86.2984,
        "meta_ra_of_asc_node": 8.1966,
        "meta_arg_of_pericenter": 179.1594,
        "meta_mean_anomaly": 180.9667,
        "meta_ephemeris_type": 0,
        "meta_classification_type": "U",
        "meta_norad_cat_id": 34376,
        "meta_element_set_no": 999,
        "meta_rev_at_epoch": 87953,
        "meta_bstar": 0.0016761111,
        "meta_mean_motion_dot": 8.56e-05,
        "meta_mean_motion_ddot": 0,
        "tle_line1": "1 34376U 97051FU  25343.05342767  .00008560  00000+0  16761-2 0  9997",
        "tle_line2": "2 34376  86.2984   8.1966 0026729 179.1594 180.9667 14.62483707879535"
      },
      "geometry": {
        "type": "Point",
        "coordinates": [
          -170.59984626285797,
          -23.59824669947078
        ]
      }
    },
    {
      "type": "Feature",
      "properties": {
        "norad_id": 34486,
        "name": "IRIDIUM 33 DEB",
        "group": "iridium-33-debris",
        "lat": 86.22805124073004,
        "lon": 120.25217159944987,
        "alt_km": 565.0188213936717,
        "timestamp": "2025-12-09T23:33:24.239165+00:00",
        "meta_object_name": "IRIDIUM 33 DEB",
        "meta_object_id": "1997-051GB",
        "meta_epoch": "2025-12-09T02:32:24.432576",
        "meta_mean_motion": 14.95535062,
        "meta_eccentricity": 0.00133768,
        "meta_inclination": 86.394,
        "meta_ra_of_asc_node": 13.7018,
        "meta_arg_of_pericenter": 124.1656,
        "meta_mean_anomaly": 295.4203,
        "meta_ephemeris_type": 0,
        "meta_classification_type": "U",
        "meta_norad_cat_id": 34486,
        "meta_element_set_no": 999,
        "meta_rev_at_epoch": 88932,
        "meta_bstar": 0.0024815535,
        "meta_mean_motion_dot": 0.00027645,
        "meta_mean_motion_ddot": 0,
        "tle_line1": "1 34486U 97051GB  25343.10583834  .00027645  00000+0  24816-2 0  9992",
        "tle_line2": "2 34486  86.3940  13.7018 0013376 124.1656 295.4203 14.95535062889327"
      },
      "geometry": {
        "type": "Point",
        "coordinates": [
          120.25217159944987,
          86.22805124073004
        ]
      }
    },
    {
      "type": "Feature",
      "properties": {
        "norad_id": 34487,
        "name": "IRIDIUM 33 DEB",
        "group": "iridium-33-debris",
        "lat": -85.40803992912632,
        "lon": -113.67279325598287,
        "alt_km": 770.2871405709648,
        "timestamp": "2025-12-09T23:33:24.239176+00:00",
        "meta_object_name": "IRIDIUM 33 DEB",
        "meta_object_id": "1997-051GC",
        "meta_epoch": "2025-12-09T13:02:34.225152",
        "meta_mean_motion": 14.43210481,
        "meta_eccentricity": 0.00325119,
        "meta_inclination": 86.3437,
        "meta_ra_of_asc_node": 13.7534,
        "meta_arg_of_pericenter": 138.4388,
        "meta_mean_anomaly": 13.878,
        "meta_ephemeris_type": 0,
        "meta_classification_type": "U",
        "meta_norad_cat_id": 34487,
        "meta_element_set_no": 999,
        "meta_rev_at_epoch": 88202,
        "meta_bstar": 0.00032204324,
        "meta_mean_motion_dot": 1.109e-05,
        "meta_mean_motion_ddot": 0,
        "tle_line1": "1 34487U 97051GC  25343.54345168  .00001109  00000+0  32204-3 0  9995",
        "tle_line2": "2 34487  86.3437  13.7534 0032511 138.4388  13.8780 14.43210481882024"
      },
      "geometry": {
        "type": "Point",
        "coordinates": [
          -113.67279325598287,
          -85.40803992912632
        ]
      }
    },
    {
      "type": "Feature",
      "properties": {
        "norad_id": 34488,
        "name": "IRIDIUM 33 DEB",
        "group": "iridium-33-debris",
        "lat": 73.94806511523731,
        "lon": 114.26866936397869,
        "alt_km": 467.6392949911806,
        "timestamp": "2025-12-09T23:33:24.239187+00:00",
        "meta_object_name": "IRIDIUM 33 DEB",
        "meta_object_id": "1997-051GD",
        "meta_epoch": "2025-12-09T15:14:24.291168",
        "meta_mean_motion": 15.28228201,
        "meta_eccentricity": 0.00141129,
        "meta_inclination": 86.3246,
        "meta_ra_of_asc_node": 307.3494,
        "meta_arg_of_pericenter": 56.5071,
        "meta_mean_anomaly": 303.7523,
        "meta_ephemeris_type": 0,
        "meta_classification_type": "U",
        "meta_norad_cat_id": 34488,
        "meta_element_set_no": 999,
        "meta_rev_at_epoch": 89192,
        "meta_bstar": 0.005927931,
        "meta_mean_motion_dot": 0.00166796,
        "meta_mean_motion_ddot": 0,
        "tle_line1": "1 34488U 97051GD  25343.63500337  .00166796  00000+0  59279-2 0  9991",
        "tle_line2": "2 34488  86.3246 307.3494 0014112  56.5071 303.7523 15.28228201891924"
      },
      "geometry": {
        "type": "Point",
        "coordinates": [
          114.26866936397869,
          73.94806511523731
        ]
      }
    }
  ]
}